[Satellite]
VERSION=1.1
NAME=SL-16 R/B
NICKNAME=SL-16 R/B
TLE1=1 23405U 94077B   20158.17670824 -.00000303  00000-0 -13149-3 0  9991
TLE2=2 23405  70.9836  94.1731 0001146 180.5683 179.5438 14.15219948319012
STATUS=0
